
# Worst residual: 37.54 km
# MJD 58895.000000 (2020 Feb 16  0:00)
Gaia = 2013-074A = NORAD 39479
1 39479U 13074A   20047.49919926  .00000000  00000-0  00000-0 2 11398
2 39479 016.2524 011.7714 3747834 318.1465 180.0193 00.00870147    08

# Worst residual: 38.07 km
# MJD 58896.000000 (2020 Feb 17  0:00)
Gaia = 2013-074A = NORAD 39479
1 39479U 13074A   20048.49919926  .00000000  00000-0  00000-0 2 11399
2 39479 016.1927 011.9590 3846249 320.1477 178.6667 00.00879295    06

# Worst residual: 41.79 km
# MJD 58897.000000 (2020 Feb 18  0:00)
Gaia = 2013-074A = NORAD 39479
1 39479U 13074A   20049.49919926  .00000000  00000-0  00000-0 2 11390
2 39479 016.1313 012.1433 3942971 322.1753 177.1882 00.00887912    00

# Worst residual: 45.29 km
# MJD 58898.000000 (2020 Feb 19  0:00)
Gaia = 2013-074A = NORAD 39479
1 39479U 13074A   20050.49919926  .00000000  00000-0  00000-0 2 11392
2 39479 016.0705 012.3182 4035683 324.2198 175.6150 00.00895707    09

# Worst residual: 48.46 km
# MJD 58899.000000 (2020 Feb 20  0:00)
Gaia = 2013-074A = NORAD 39479
1 39479U 13074A   20051.49919926  .00000000  00000-0  00000-0 2 11393
2 39479 016.0123 012.4783 4122663 326.2744 173.9756 00.00902464    07

# Worst residual: 51.21 km
# MJD 58900.000000 (2020 Feb 21  0:00)
Gaia = 2013-074A = NORAD 39479
1 39479U 13074A   20052.49919926  .00000000  00000-0  00000-0 2 11394
2 39479 015.9588 012.6186 4202669 328.3349 172.2955 00.00908024    09

# Worst residual: 53.49 km
# MJD 58901.000000 (2020 Feb 22  0:00)
Gaia = 2013-074A = NORAD 39479
1 39479U 13074A   20053.49919926  .00000000  00000-0  00000-0 2 11395
2 39479 015.9123 012.7354 4274899 330.3981 170.5991 00.00912291    03

# Worst residual: 55.26 km
# MJD 58902.000000 (2020 Feb 23  0:00)
Gaia = 2013-074A = NORAD 39479
1 39479U 13074A   20054.49919926  .00000000  00000-0  00000-0 2 11396
2 39479 015.8744 012.8259 4338921 332.4612 168.9083 00.00915225    00

# Worst residual: 56.50 km
# MJD 58903.000000 (2020 Feb 24  0:00)
Gaia = 2013-074A = NORAD 39479
1 39479U 13074A   20055.49919926  .00000000  00000-0  00000-0 2 11397
2 39479 015.8469 012.8884 4394656 334.5214 167.2440 00.00916837    05

# Worst residual: 57.20 km
# MJD 58904.000000 (2020 Feb 25  0:00)
Gaia = 2013-074A = NORAD 39479
1 39479U 13074A   20056.49919926  .00000000  00000-0  00000-0 2 11398
2 39479 015.8310 012.9225 4442281 336.5748 165.6259 00.00917180    04

# Worst residual: 57.38 km
# MJD 58905.000000 (2020 Feb 26  0:00)
Gaia = 2013-074A = NORAD 39479
1 39479U 13074A   20057.49919926  .00000000  00000-0  00000-0 2 11399
2 39479 015.8280 012.9289 4482198 338.6167 164.0722 00.00916345    09

# Worst residual: 57.10 km
# MJD 58906.000000 (2020 Feb 27  0:00)
Gaia = 2013-074A = NORAD 39479
1 39479U 13074A   20058.49919926  .00000000  00000-0  00000-0 2 11390
2 39479 015.8384 012.9091 4514971 340.6412 162.6009 00.00914450    03

# Worst residual: 56.36 km
# MJD 58907.000000 (2020 Feb 28  0:00)
Gaia = 2013-074A = NORAD 39479
1 39479U 13074A   20059.49919926  .00000000  00000-0  00000-0 2 11391
2 39479 015.8626 012.8657 4541290 342.6406 161.2299 00.00911640    02

# Worst residual: 55.12 km
# MJD 58908.000000 (2020 Feb 29  0:00)
Gaia = 2013-074A = NORAD 39479
1 39479U 13074A   20060.49919926  .00000000  00000-0  00000-0 2 11393
2 39479 015.9008 012.8017 4561938 344.6058 159.9778 00.00908073    05

# Worst residual: 53.42 km
# MJD 58909.000000 (2020 Mar  1  0:00)
Gaia = 2013-074A = NORAD 39479
1 39479U 13074A   20061.49919926  .00000000  00000-0  00000-0 2 11394
2 39479 015.9529 012.7206 4577816 346.5253 158.8651 00.00903931    08

# Worst residual: 51.27 km
# MJD 58910.000000 (2020 Mar  2  0:00)
Gaia = 2013-074A = NORAD 39479
1 39479U 13074A   20062.49919926  .00000000  00000-0  00000-0 2 11395
2 39479 016.0182 012.6263 4590005 348.3850 157.9158 00.00899420    04

# Worst residual: 49.15 km
# MJD 58911.000000 (2020 Mar  3  0:00)
Gaia = 2013-074A = NORAD 39479
1 39479U 13074A   20063.49919926  .00000000  00000-0  00000-0 2 11396
2 39479 016.0961 012.5226 4599694 350.1709 157.1511 00.00894754    04

# Worst residual: 45.61 km
# MJD 58912.000000 (2020 Mar  4  0:00)
Gaia = 2013-074A = NORAD 39479
1 39479U 13074A   20064.49919926  .00000000  00000-0  00000-0 2 11397
2 39479 016.1868 012.4118 4607506 351.8825 156.5658 00.00890047    05

# Worst residual: 42.23 km
# MJD 58913.000000 (2020 Mar  5  0:00)
Gaia = 2013-074A = NORAD 39479
1 39479U 13074A   20065.49919926  .00000000  00000-0  00000-0 2 11398
2 39479 016.2846 012.3030 4619033 353.4494 156.2785 00.00886050    09

# Worst residual: 38.72 km
# MJD 58914.000000 (2020 Mar  6  0:00)
Gaia = 2013-074A = NORAD 39479
1 39479U 13074A   20066.49919926  .00000000  00000-0  00000-0 2 11399
2 39479 016.3890 012.1979 4635839 354.8746 156.2707 00.00882937    00

# Worst residual: 35.36 km
# MJD 58915.000000 (2020 Mar  7  0:00)
Gaia = 2013-074A = NORAD 39479
1 39479U 13074A   20067.49919926  .00000000  00000-0  00000-0 2 11390
2 39479 016.4968 012.1003 4661883 356.1406 156.5571 00.00881125    01

# Worst residual: 32.55 km
# MJD 58916.000000 (2020 Mar  8  0:00)
Gaia = 2013-074A = NORAD 39479
1 39479U 13074A   20068.49919926  .00000000  00000-0  00000-0 2 11391
2 39479 016.6047 012.0133 4701506 357.2416 157.1293 00.00881015    00

# Worst residual: 30.72 km
# MJD 58917.000000 (2020 Mar  9  0:00)
Gaia = 2013-074A = NORAD 39479
1 39479U 13074A   20069.49919926  .00000000  00000-0  00000-0 2 11392
2 39479 016.7092 011.9388 4758760 358.1885 157.9478 00.00882919    02
